{
  "kafka": {
    "bootstrap_servers": "10.100.0.211:9092",
    "topic": "unionTargetPb",
    "ais_static_topic": "aisStaticInfoJs",
    "bds_topic": "bds_ShanDong_changdao"
  },
  "mysql": {
    "host": "10.100.0.14",
    "port": 9030,
    "user": "root",
    "password": "",
    "database": "ods"
  },
  "starrocks": {
    "host": "10.100.0.14",
    "port": 9030,
    "user": "root",
    "password": "",
    "database": "ods"
  },
  "ui_options": {
    "eTargetType": {
      "RADAR": 1,
      "AIS_A": 1,
      "AIS_B": 2,
      "BDS": 1,
      "RADAR_AIS_A": 1,
      "RADAR_AIS_B": 2,
      "RADAR_BDS": 1,
      "AIS_A_BDS": 1,
      "AIS_B_BDS": 2,
      "RADAR_AIS_A_BDS": 1,
      "RADAR_AIS_B_BDS": 2,
      "AID": 71,
      "VAID": 72,
      "RADAR_AID": 71,
      "RADAR_VAID": 72,
      "OBJECT_STATIC_OBJ": 14,
      "RADAR_OBJECT_STATIC_OBJ": 14,
      "CCTV": 1,
      "RADAR_CCTV": 1,
      "CCTV_AIS": 1,
       "OTHERS": 1
    },

    "shiptype": {
      "渔船": 30,
      "货船": 70,
      "油船": 80,
      "客船": 60,
      "拖船": 52,
      "公务船":55,
      "作业船":33,
      "其他": 200
    },
    "deviceCategory": {
      "A": 1,
      "B": 2
    },
    "sost": {
      "正常": 1,
      "预测": 2
    },
    "dataStatus": {
      "new": 1,
      "update": 2,
      "delete": 3
    },
    "province": [
      { "name": "海南", "name_en": "HaiNan", "provinceCode": "460000", "adapterId": 12 },
      { "name": "广东", "name_en": "GuangDong", "provinceCode": "440000", "adapterId": 14 },
      { "name": "福建", "name_en": "FuJian", "provinceCode": "350000", "adapterId": 13 },
      { "name": "山东", "name_en": "ShanDong", "provinceCode": "370000", "adapterId": 15 },
      { "name": "粤桂琼", "name_en": "YGQ", "provinceCode": "830000", "adapterId": 321 },
      { "name": "沙上", "name_en": "ShaShang", "provinceCode": "850000", "adapterId": 1201 },
      { "name": "三亚河", "name_en": "SanYaHe", "provinceCode": "860000", "adapterId": 1202 },
      { "name": "三亚", "name_en": "SanYa", "provinceCode": "1460200", "adapterId": 139 },
       { "name": "青海", "name_en": "QingHai", "provinceCode": "630000", "adapterId": 19 },
       { "name": "江西", "name_en": "JiangXi", "provinceCode": "480000", "adapterId": 136 },
       { "name": "湖南", "name_en": "HuNanHY", "provinceCode": "430100", "adapterId": 134 },
      { "name": "惠州", "name_en": "HuiZhou", "provinceCode": "441300", "adapterId": 1402 },
      { "name": "广西", "name_en": "GuangXi", "provinceCode": "450000", "adapterId": 16 },
       { "name": "全球AIS", "name_en": "Global", "provinceCode": "000000", "adapterId": 135 },
      { "name": "环渤海", "name_en": "HeBei", "provinceCode": "130000", "adapterId": 11 },
      { "name": "辽宁", "name_en": "LiaoNing", "provinceCode": "210000", "adapterId": 18 },
      { "name": "辽宁渔政", "name_en": "LiaoNingYZ", "provinceCode": "210100", "adapterId": 137 },
      { "name": "江苏", "name_en": "JiangSu", "provinceCode": "320000", "adapterId": 6 },
      { "name": "浙江", "name_en": "ZheJiang", "provinceCode": "330000", "adapterId": 17 }
    ],
    "eTargetType_mapping": [
      { "ui_class": "AIS_A", "ui_state": 1, "eTargetType": 1 },
      { "ui_class": "AIS_A", "ui_state": 2, "eTargetType": 2 },
      { "ui_class": "AIS_B", "ui_state": 1, "eTargetType": 3 },
      { "ui_class": "AIS_B", "ui_state": 2, "eTargetType": 4 },
      { "ui_class": "AID", "ui_state": 1, "eTargetType": 5 },
      { "ui_class": "VAID", "ui_state": 1, "eTargetType": 6 },
      { "ui_class": "RADAR", "ui_state": 1, "eTargetType": 7 },
      { "ui_class": "RADAR", "ui_state": 2, "eTargetType": 8 },
      { "ui_class": "RADAR_AIS_A", "ui_state": 1, "eTargetType": 9 },
      { "ui_class": "RADAR_AIS_A", "ui_state": 2, "eTargetType": 11 },
      { "ui_class": "RADAR_AIS_A", "ui_state": 1, "eTargetType": 12 },
      { "ui_class": "RADAR_AIS_A", "ui_state": 2, "eTargetType": 13 },
      { "ui_class": "RADAR_AIS_B", "ui_state": 1, "eTargetType": 14 },
      { "ui_class": "RADAR_AIS_B", "ui_state": 2, "eTargetType": 15 },
      { "ui_class": "RADAR_AIS_B", "ui_state": 1, "eTargetType": 16 },
      { "ui_class": "RADAR_AIS_B", "ui_state": 2, "eTargetType": 17 },
      { "ui_class": "RADAR_AID", "ui_state": 1, "eTargetType": 18 },
      { "ui_class": "RADAR_VAID", "ui_state": 1, "eTargetType": 19 },
      { "ui_class": "OBJECT_STATIC_OBJ", "ui_state": 1, "eTargetType": 20 },
      { "ui_class": "RADAR_OBJECT_STATIC_OBJ", "ui_state": 1, "eTargetType": 21 },
      { "ui_class": "RADAR", "ui_state": 1, "eTargetType": 22 },
      { "ui_class": "RADAR", "ui_state": 2, "eTargetType": 23 }
    ]
  },
  "random_generation": {
    "id": {
      "prefix": "11",
      "length": 19
    },
    "mmsi": {
      "prefix": "",
      "length": 9
    },
    "bds": {
      "prefix": "",
      "length": 9
    }
  }
}
